[{"OBJECT_NAME":"TIANPING 2B","OBJECT_ID":"2022-032C","EPOCH":"2026-03-09T22:22:05.849760","MEAN_MOTION":15.01267566,"ECCENTRICITY":0.00208707,"INCLINATION":97.6053,"RA_OF_ASC_NODE":116.3222,"ARG_OF_PERICENTER":130.0797,"MEAN_ANOMALY":230.2261,"EPHEMERIS_TYPE":0,"CLASSIFICATION_TYPE":"U","NORAD_CAT_ID":52155,"ELEMENT_SET_NO":999,"REV_AT_EPOCH":21538,"BSTAR":0.00026542484,"MEAN_MOTION_DOT":3.368e-5,"MEAN_MOTION_DDOT":0},{"OBJECT_NAME":"STARLINK-34866","OBJECT_ID":"2025-175R","EPOCH":"2026-03-09T15:15:18.946944","MEAN_MOTION":15.05636656,"ECCENTRICITY":0.0002675,"INCLINATION":97.6019,"RA_OF_ASC_NODE":302.6258,"ARG_OF_PERICENTER":81.3187,"MEAN_ANOMALY":278.8342,"EPHEMERIS_TYPE":0,"CLASSIFICATION_TYPE":"U","NORAD_CAT_ID":65189,"ELEMENT_SET_NO":999,"REV_AT_EPOCH":3263,"BSTAR":0.00027254,"MEAN_MOTION_DOT":3.873e-5,"MEAN_MOTION_DDOT":0}]
